$$SOE
2461302.500000000, A.D. 2026-Sep-19 00:00:00.0000, -2.585479006960398E+08, 3.039391515477302E+08, -2.053894393069804E+07,
2461309.500000000, A.D. 2026-Sep-26 00:00:00.0000, -2.675193058502425E+08, 2.975924249428900E+08, -1.914912868466225E+07,
2461316.500000000, A.D. 2026-Oct-03 00:00:00.0000, -2.762889123141684E+08, 2.910211979790002E+08, -1.774483399664877E+07,
2461323.500000000, A.D. 2026-Oct-10 00:00:00.0000, -2.848517425282174E+08, 2.842321637421932E+08, -1.632722650466038E+07,
2461330.500000000, A.D. 2026-Oct-17 00:00:00.0000, -2.932030580419182E+08, 2.772320802498095E+08, -1.489746505289304E+07,
2461337.500000000, A.D. 2026-Oct-24 00:00:00.0000, -3.013383567800279E+08, 2.700277619418136E+08, -1.345669982005472E+07,
2461344.500000000, A.D. 2026-Oct-31 00:00:00.0000, -3.092533699766671E+08, 2.626260713705627E+08, -1.200607153022975E+07,
2461351.500000000, A.D. 2026-Nov-07 00:00:00.0000, -3.169440584641191E+08, 2.550339111623240E+08, -1.054671076945412E+07,
2461358.500000000, A.D. 2026-Nov-14 00:00:00.0000, -3.244066081402723E+08, 2.472582171354079E+08, -9.079737351891384E+06,
2461365.500000000, A.D. 2026-Nov-21 00:00:00.0000, -3.316374264517668E+08, 2.393059532534229E+08, -7.606259511801451E+06,
2461372.500000000, A.D. 2026-Nov-28 00:00:00.0000, -3.386331409153849E+08, 2.311841054033764E+08, -6.127373073747829E+06,
2461379.500000000, A.D. 2026-Dec-05 00:00:00.0000, -3.453905960768954E+08, 2.228996733375026E+08, -4.644160984054878E+06,
2461386.500000000, A.D. 2026-Dec-12 00:00:00.0000, -3.519068487610417E+08, 2.144596638798560E+08, -3.157692961589038E+06,
2461393.500000000, A.D. 2026-Dec-19 00:00:00.0000, -3.581791635225986E+08, 2.058710853964696E+08, -1.669025092246160E+06,
2461400.500000000, A.D. 2026-Dec-26 00:00:00.0000, -3.642050084607416E+08, 1.971409426557224E+08, -1.791994229657501E+05,
2461407.500000000, A.D. 2027-Jan-02 00:00:00.0000, -3.699820511367605E+08, 1.882762318809307E+08, 1.310756406285360E+06,
2461414.500000000, A.D. 2027-Jan-09 00:00:00.0000, -3.755081544919285E+08, 1.792839360062196E+08, 2.799829486035720E+06,
2461421.500000000, A.D. 2027-Jan-16 00:00:00.0000, -3.807813727427824E+08, 1.701710201334330E+08, 4.287021916305028E+06,
2461428.500000000, A.D. 2027-Jan-23 00:00:00.0000, -3.857999472206561E+08, 1.609444271375300E+08, 5.771351035920620E+06,
2461435.500000000, A.D. 2027-Jan-30 00:00:00.0000, -3.905623019822852E+08, 1.516110733592290E+08, 7.251849583059318E+06,
2461442.500000000, A.D. 2027-Feb-06 00:00:00.0000, -3.950670387826942E+08, 1.421778447128465E+08, 8.727565777643792E+06,
2461449.500000000, A.D. 2027-Feb-13 00:00:00.0000, -3.993129318862628E+08, 1.326515944188681E+08, 1.019756346919163E+07,
2461456.500000000, A.D. 2027-Feb-20 00:00:00.0000, -4.032989250943542E+08, 1.230391415616487E+08, 1.166092250392386E+07,
2461463.500000000, A.D. 2027-Feb-27 00:00:00.0000, -4.070241296052834E+08, 1.133472672518325E+08, 1.311673892221703E+07,
2461470.500000000, A.D. 2027-Mar-06 00:00:00.0000, -4.104878196931539E+08, 1.035827103080517E+08, 1.456412486866463E+07,
2461477.500000000, A.D. 2027-Mar-13 00:00:00.0000, -4.136894278082975E+08, 9.375216449472666E+07, 1.600220853067842E+07,
2461484.500000000, A.D. 2027-Mar-20 00:00:00.0000, -4.166285402350967E+08, 8.386227646816844E+07, 1.743013414227861E+07,
2461491.500000000, A.D. 2027-Mar-27 00:00:00.0000, -4.193048931121978E+08, 7.391964387093499E+07, 1.884706199102756E+07,
2461498.500000000, A.D. 2027-Apr-03 00:00:00.0000, -4.217183686179126E+08, 6.393081351612489E+07, 2.025216840709828E+07,
2461505.500000000, A.D. 2027-Apr-10 00:00:00.0000, -4.238689912647923E+08, 5.390227967427783E+07, 2.164464573230013E+07,
2461512.500000000, A.D. 2027-Apr-17 00:00:00.0000, -4.257569242862447E+08, 4.384048243884891E+07, 2.302370226742768E+07,
2461519.500000000, A.D. 2027-Apr-24 00:00:00.0000, -4.273824660402265E+08, 3.375180609910483E+07, 2.438856218711811E+07,
2461526.500000000, A.D. 2027-May-01 00:00:00.0000, -4.287460461335618E+08, 2.364257753974934E+07, 2.573846539847168E+07,
2461533.500000000, A.D. 2027-May-08 00:00:00.0000, -4.298482209614393E+08, 1.351906540727479E+07, 2.707266737775157E+07,
2461540.500000000, A.D. 2027-May-15 00:00:00.0000, -4.306896701602332E+08, 3.387480987635406E+06, 2.839043920156220E+07,
2461547.500000000, A.D. 2027-May-22 00:00:00.0000, -4.312711955400286E+08, -6.746021805387210E+06, 2.969106770528978E+07,
2461554.500000000, A.D. 2027-May-29 00:00:00.0000, -4.315937191439176E+08, -1.687534880663960E+07, 3.097385534235849E+07,
2461561.500000000, A.D. 2027-Jun-05 00:00:00.0000, -4.316582795484472E+08, -2.699446721532424E+07, 3.223811992034546E+07,
2461568.500000000, A.D. 2027-Jun-12 00:00:00.0000, -4.314660284104685E+08, -3.709740602636176E+07, 3.348319443426905E+07,
2461575.500000000, A.D. 2027-Jun-19 00:00:00.0000, -4.310182275917264E+08, -4.717825622123960E+07, 3.470842695189570E+07,
2461582.500000000, A.D. 2027-Jun-26 00:00:00.0000, -4.303162465831189E+08, -5.723117098700202E+07, 3.591318050518055E+07,
2461589.500000000, A.D. 2027-Jul-03 00:00:00.0000, -4.293615600967549E+08, -6.725036596141817E+07, 3.709683297754117E+07,
2461596.500000000, A.D. 2027-Jul-10 00:00:00.0000, -4.281557457882972E+08, -7.723011950185366E+07, 3.825877698535704E+07,
2461603.500000000, A.D. 2027-Jul-17 00:00:00.0000, -4.267004820722851E+08, -8.716477302297686E+07, 3.939841974817859E+07,
2461610.500000000, A.D. 2027-Jul-24 00:00:00.0000, -4.249975458729943E+08, -9.704873147221369E+07, 4.051518292910605E+07,
2461617.500000000, A.D. 2027-Jul-31 00:00:00.0000, -4.230488098981957E+08, -1.068764637132612E+08, 4.160850242773052E+07,
2461624.500000000, A.D. 2027-Aug-07 00:00:00.0000, -4.208562396348450E+08, -1.166425016715587E+08, 4.267782823891187E+07,
2461631.500000000, A.D. 2027-Aug-14 00:00:00.0000, -4.184218923660949E+08, -1.263414385011021E+08, 4.372262456833276E+07,
2461638.500000000, A.D. 2027-Aug-21 00:00:00.0000, -4.157479175914813E+08, -1.359679291433093E+08, 4.474236987391095E+07,
2461645.500000000, A.D. 2027-Aug-28 00:00:00.0000, -4.128365554201370E+08, -1.455166920795981E+08, 4.573655661766248E+07,
2461652.500000000, A.D. 2027-Sep-04 00:00:00.0000, -4.096901341165866E+08, -1.549825097784342E+08, 4.670469104143868E+07,
2461659.500000000, A.D. 2027-Sep-11 00:00:00.0000, -4.063110681912560E+08, -1.643602285016469E+08, 4.764629304057012E+07,
2461666.500000000, A.D. 2027-Sep-18 00:00:00.0000, -4.027018568999993E+08, -1.736447581241364E+08, 4.856089607005238E+07,
2461673.500000000, A.D. 2027-Sep-25 00:00:00.0000, -3.988650829213410E+08, -1.828310720477853E+08, 4.944804705588621E+07,
2461680.500000000, A.D. 2027-Oct-02 00:00:00.0000, -3.948034111327876E+08, -1.919142071849338E+08, 5.030730630669874E+07,
2461687.500000000, A.D. 2027-Oct-09 00:00:00.0000, -3.905195874596626E+08, -2.008892640199496E+08, 5.113824742290112E+07,
2461694.500000000, A.D. 2027-Oct-16 00:00:00.0000, -3.860164377304681E+08, -2.097514068090624E+08, 5.194045719306549E+07,
2461701.500000000, A.D. 2027-Oct-23 00:00:00.0000, -3.812968662779689E+08, -2.184958639294558E+08, 5.271353545361222E+07,
2461708.500000000, A.D. 2027-Oct-30 00:00:00.0000, -3.763638539111828E+08, -2.271179277713009E+08, 5.345709492793115E+07,
2461715.500000000, A.D. 2027-Nov-06 00:00:00.0000, -3.712204564207371E+08, -2.356129530471976E+08, 5.417076124428922E+07,
2461722.500000000, A.D. 2027-Nov-13 00:00:00.0000, -3.658698056010001E+08, -2.439763555979381E+08, 5.485417314515617E+07,
2461729.500000000, A.D. 2027-Nov-20 00:00:00.0000, -3.603151098858081E+08, -2.522036138840297E+08, 5.550698244358172E+07,
2461736.500000000, A.D. 2027-Nov-27 00:00:00.0000, -3.545596529790984E+08, -2.602902702011470E+08, 5.612885382110548E+07,
2461743.500000000, A.D. 2027-Dec-04 00:00:00.0000, -3.486067925011401E+08, -2.682319307070054E+08, 5.671946472766954E+07,
2461750.500000000, A.D. 2027-Dec-11 00:00:00.0000, -3.424599591970163E+08, -2.760242652256205E+08, 5.727850535513059E+07,
2461757.500000000, A.D. 2027-Dec-18 00:00:00.0000, -3.361226564289772E+08, -2.836630071712667E+08, 5.780567863142801E+07,
2461764.500000000, A.D. 2027-Dec-25 00:00:00.0000, -3.295984597983495E+08, -2.911439535979232E+08, 5.830070022157814E+07,
2461771.500000000, A.D. 2028-Jan-01 00:00:00.0000, -3.228910168537514E+08, -2.984629653628013E+08, 5.876329853333994E+07,
$$EOE